OBJECT_NAME,OBJECT_ID,EPOCH,MEAN_MOTION,ECCENTRICITY,INCLINATION,RA_OF_ASC_NODE,ARG_OF_PERICENTER,MEAN_ANOMALY,EPHEMERIS_TYPE,CLASSIFICATION_TYPE,NORAD_CAT_ID,ELEMENT_SET_NO,REV_AT_EPOCH,BSTAR,MEAN_MOTION_DOT,MEAN_MOTION_DDOT
SAUDISAT 1C (SO-50),2002-058C,2026-03-01T10:57:26.169696,14.82743943,.0075059,64.5510,102.2353,282.1563,77.1142,0,U,27607,999,24848,.24292E-3,.191E-4,0
SAUDISAT 2,2004-025F,2026-03-01T11:00:50.438304,14.56607757,.00235,98.5491,57.6734,267.6691,92.1815,0,U,28371,999,15006,.11009E-3,.443E-5,0
SAUDISAT 3,2007-012B,2026-03-01T09:42:42.708672,14.71344634,.0013964,98.1335,10.8161,205.6437,154.4079,0,U,31118,999,1189,.81603E-4,.454E-5,0
PISAT,2016-059B,2026-03-01T12:19:58.537344,14.68749459,.0028882,97.8187,65.6105,186.7021,173.3803,0,U,41784,999,50393,.23189E-3,.1313E-4,0
FLYING LAPTOP,2017-042G,2026-03-01T12:12:44.475840,15.00447709,.0018226,97.4242,220.5483,122.3025,237.9968,0,U,42831,999,47030,.17634E-3,.2169E-4,0
SALSAT,2020-068K,2026-03-01T11:42:16.163712,15.27983521,.0008976,97.8843,57.1429,330.8256,29.2479,0,U,46495,999,29890,.40526E-3,.11E-3,0