SAUDISAT 1C (SO-50)     
1 27607U 02058C   26060.45655289  .00001910  00000+0  24292-3 0  9997
2 27607  64.5510 102.2353 0075059 282.1563  77.1142 14.82743943248487
SAUDISAT 2              
1 28371U 04025F   26060.45891711  .00000443  00000+0  11009-3 0  9996
2 28371  98.5491  57.6734 0023500 267.6691  92.1815 14.56607757150064
SAUDISAT 3              
1 31118U 07012B   26060.40466098  .00000454  00000+0  81603-4 0  9999
2 31118  98.1335  10.8161 0013964 205.6437 154.4079 14.71344634 11898
PISAT                   
1 41784U 16059B   26060.51387196  .00001313  00000+0  23189-3 0  9992
2 41784  97.8187  65.6105 0028882 186.7021 173.3803 14.68749459503934
FLYING LAPTOP           
1 42831U 17042G   26060.50884810  .00002169  00000+0  17634-3 0  9991
2 42831  97.4242 220.5483 0018226 122.3025 237.9968 15.00447709470301
SALSAT                  
1 46495U 20068K   26060.48768708  .00011000  00000+0  40526-3 0  9997
2 46495  97.8843  57.1429 0008976 330.8256  29.2479 15.27983521298908
